NORAD_CAT_ID,OBJECT_NAME,OBJECT_TYPE,EPOCH,MEAN_MOTION,ECCENTRICITY,INCLINATION,RA_OF_ASC_NODE,ARG_OF_PERICENTER,MEAN_ANOMALY,BSTAR,MEAN_MOTION_DOT,MEAN_MOTION_DDOT,TLE_LINE0,TLE_LINE1,TLE_LINE2,SEMIMAJOR_AXIS,PERIOD,APOGEE,PERIGEE,DECAYED
55426.0,STARLINK-5638,PAYLOAD,2024-02-06 20:34:20,14.98332526,0.0002845,70.0001,205.4431,275.8102,84.2732,3.2644e-05,2.97e-06,0.0,0 STARLINK-5638,1 55426U 23014AM  24037.85718337  .00000297  00000-0  32644-4 0  9991,2 55426  70.0001 205.4431 0002845 275.8102  84.2732 14.98332526 57444,6950.185,96.107,574.027,570.073,0.0
55426.0,STARLINK-5638,PAYLOAD,2024-02-07 14:11:49,14.98332093,0.0002722,70.0006,203.5929,272.6705,87.4142,-6.0447e-05,-8.14e-06,0.0,0 STARLINK-5638,1 55426U 23014AM  24038.59154519 -.00000814  00000-0 -60447-4 0  9998,2 55426  70.0006 203.5929 0002722 272.6705  87.4142 14.98332093 57559,6950.186,96.107,573.943,570.16,0.0
55426.0,STARLINK-5638,PAYLOAD,2024-02-07 19:00:13,14.98332218,0.0002777,70.0006,203.088,274.2341,85.85,-5.5113e-05,-7.51e-06,0.0,0 STARLINK-5638,1 55426U 23014AM  24038.79182465 -.00000751  00000-0 -55113-4 0  9995,2 55426  70.0006 203.0880 0002777 274.2341  85.8500 14.98332218 56642,6950.186,96.107,573.981,570.121,0.0
55426.0,STARLINK-5638,PAYLOAD,2024-02-07 20:36:21,14.98332075,0.0002783,70.0006,202.9197,274.3083,85.7758,-5.5981e-05,-7.61e-06,0.0,0 STARLINK-5638,1 55426U 23014AM  24038.85858463 -.00000761  00000-0 -55981-4 0  9994,2 55426  70.0006 202.9197 0002783 274.3083  85.7758 14.98332075 57592,6950.186,96.107,573.986,570.117,0.0
55426.0,STARLINK-5638,PAYLOAD,2024-02-08 14:13:50,14.98326503,0.0002894,70.0004,201.0665,275.3764,84.7065,-4.546e-05,-6.35e-06,0.0,0 STARLINK-5638,1 55426U 23014AM  24039.59294823 -.00000635  00000-0 -45460-4 0  9991,2 55426  70.0004 201.0665 0002894 275.3764  84.7065 14.98326503 57702,6950.204,96.107,574.08,570.057,0.0
55426.0,STARLINK-5638,PAYLOAD,2024-02-08 19:02:14,14.98327629,0.0002886,70.0005,200.5616,275.4465,84.6365,-2.9106e-05,-4.4e-06,0.0,0 STARLINK-5638,1 55426U 23014AM  24039.79322746 -.00000440  00000-0 -29106-4 0  9992,2 55426  70.0005 200.5616 0002886 275.4465  84.6365 14.98327629 56793,6950.2,96.107,574.071,570.059,0.0
55426.0,STARLINK-5638,PAYLOAD,2024-02-08 20:38:22,14.98328493,0.0002888,70.0005,200.3933,275.5189,84.564,-1.9254e-05,-3.23e-06,0.0,0 STARLINK-5638,1 55426U 23014AM  24039.85998672 -.00000323  00000-0 -19254-4 0  9999,2 55426  70.0005 200.3933 0002888 275.5189  84.5640 14.98328493 57740,6950.198,96.107,574.07,570.055,0.0
55426.0,STARLINK-5638,PAYLOAD,2024-02-09 14:15:51,14.98331288,0.0002956,70.0005,198.5422,275.8123,84.2699,3.424e-05,3.16e-06,0.0,0 STARLINK-5638,1 55426U 23014AM  24040.59434387  .00000316  00000-0  34240-4 0  9992,2 55426  70.0005 198.5422 0002956 275.8123  84.2699 14.98331288 57857,6950.189,96.107,574.108,569.999,0.0
55426.0,STARLINK-5638,PAYLOAD,2024-02-09 19:04:15,14.98333906,0.0002931,70.0005,198.0372,275.8534,84.229,6.2749e-05,6.56e-06,0.0,0 STARLINK-5638,1 55426U 23014AM  24040.79462119  .00000656  00000-0  62749-4 0  9990,2 55426  70.0005 198.0372 0002931 275.8534  84.2290 14.98333906 56940,6950.181,96.107,574.083,570.009,0.0
55426.0,STARLINK-5638,PAYLOAD,2024-02-10 14:17:52,14.98329188,0.0002883,70.0006,196.0174,275.5119,84.5711,4.061e-05,3.92e-06,0.0,0 STARLINK-5638,1 55426U 23014AM  24041.59574440  .00000392  00000-0  40610-4 0  9990,2 55426  70.0006 196.0174 0002883 275.5119  84.5711 14.98329188 58008,6950.195,96.107,574.064,570.057,0.0
55426.0,STARLINK-5638,PAYLOAD,2024-02-10 19:06:16,14.98330697,0.0002746,70.0009,195.5136,269.8692,90.2153,6.4787e-05,6.8e-06,0.0,0 STARLINK-5638,1 55426U 23014AM  24041.79602247  .00000680  00000-0  64787-4 0  9990,2 55426  70.0009 195.5136 0002746 269.8692  90.2153 14.98330697 57092,6950.191,96.107,573.964,570.147,0.0
55426.0,STARLINK-5638,PAYLOAD,2024-02-10 20:42:24,14.9833121,0.0002749,70.0009,195.3453,269.9912,90.0932,6.8454e-05,7.24e-06,0.0,0 STARLINK-5638,1 55426U 23014AM  24041.86278199  .00000724  00000-0  68454-4 0  9997,2 55426  70.0009 195.3453 0002749 269.9912  90.0932 14.98331210 58042,6950.189,96.107,573.965,570.144,0.0
55426.0,STARLINK-5638,PAYLOAD,2024-02-11 14:19:52,14.98333727,0.0002693,70.0011,193.4942,265.7246,94.3605,-6.358e-06,-1.69e-06,0.0,0 STARLINK-5638,1 55426U 23014AM  24042.59714076 -.00000169  00000-0 -63580-5 0  9998,2 55426  70.0011 193.4942 0002693 265.7246  94.3605 14.98333727 58150,6950.181,96.107,573.918,570.175,0.0
55426.0,STARLINK-5638,PAYLOAD,2024-02-11 19:08:17,14.98334595,0.0002685,70.0011,192.9894,265.4474,94.6378,4.5252e-06,-3.9e-07,0.0,0 STARLINK-5638,1 55426U 23014AM  24042.79741938 -.00000039  00000-0  45252-5 0  9998,2 55426  70.0011 192.9894 0002685 265.4474  94.6378 14.98334595 57244,6950.179,96.107,573.91,570.178,0.0
55426.0,STARLINK-5638,PAYLOAD,2024-02-12 14:21:54,14.98328033,0.0002688,70.0012,190.9699,259.7598,100.3258,-2.137e-05,-3.48e-06,0.0,0 STARLINK-5638,1 55426U 23014AM  24043.59854274 -.00000348  00000-0 -21370-4 0  9993,2 55426  70.0012 190.9699 0002688 259.7598 100.3258 14.98328033 58302,6950.199,96.107,573.932,570.196,0.0
55426.0,STARLINK-5638,PAYLOAD,2024-02-12 19:10:18,14.98328166,0.0002772,70.0009,190.4646,265.8066,94.2776,-2.6442e-05,-4.08e-06,0.0,0 STARLINK-5638,1 55426U 23014AM  24043.79882326 -.00000408  00000-0 -26442-4 0  9996,2 55426  70.0009 190.4646 0002772 265.8066  94.2776 14.98328166 57398,6950.199,96.107,573.99,570.137,0.0
55426.0,STARLINK-5638,PAYLOAD,2024-02-13 14:23:55,14.98328171,0.0002809,70.0004,188.4429,265.8465,94.2372,-4.703e-05,-6.54e-06,0.0,0 STARLINK-5638,1 55426U 23014AM  24044.59994443 -.00000654  00000-0 -47030-4 0  9998,2 55426  70.0004 188.4429 0002809 265.8465  94.2372 14.98328171 58459,6950.199,96.107,574.016,570.111,0.0
55426.0,STARLINK-5638,PAYLOAD,2024-02-13 19:12:19,14.98331387,0.0002887,70.0003,187.9378,268.015,92.0678,1.0353e-05,3.1e-07,0.0,0 STARLINK-5638,1 55426U 23014AM  24044.80022036  .00000031  00000-0  10353-4 0  9997,2 55426  70.0003 187.9378 0002887 268.0150  92.0678 14.98331387 57544,6950.189,96.107,574.06,570.047,0.0
55426.0,STARLINK-5638,PAYLOAD,2024-02-14 11:13:40,14.98320224,0.0002891,70.0005,186.2543,269.0734,91.0094,3.5304e-05,3.28e-06,0.0,0 STARLINK-5638,1 55426U 23014AM  24045.46782793  .00000328  00000-0  35304-4 0  9995,2 55426  70.0005 186.2543 0002891 269.0734  91.0094 14.98320224 57646,6950.223,96.108,574.097,570.079,0.0
55426.0,STARLINK-5638,PAYLOAD,2024-02-14 14:25:56,14.98314237,0.0002872,70.0008,185.9177,270.1158,89.9672,0.00013846,1.559e-05,0.0,0 STARLINK-5638,1 55426U 23014AM  24045.60134945  .00001559  00000-0  13846-3 0  9994,2 55426  70.0008 185.9177 0002872 270.1158  89.9672 14.98314237 58602,6950.242,96.108,574.103,570.111,0.0
55426.0,STARLINK-5638,PAYLOAD,2024-02-14 16:02:04,14.98325928,0.0002869,70.0006,185.7501,267.1231,92.96,6.5372e-05,6.87e-06,0.0,0 STARLINK-5638,1 55426U 23014AM  24045.66810425  .00000687  00000-0  65372-4 0  9997,2 55426  70.0006 185.7501 0002869 267.1231  92.9600 14.98325928 58618,6950.205,96.107,574.064,570.076,0.0
55426.0,STARLINK-5638,PAYLOAD,2024-02-15 14:27:57,14.98328069,0.0002915,70.0012,183.3957,268.2477,91.8349,7.5045e-05,8.03e-06,0.0,0 STARLINK-5638,1 55426U 23014AM  24046.60274368  .00000803  00000-0  75045-4 0  9990,2 55426  70.0012 183.3957 0002915 268.2477  91.8349 14.98328069 58752,6950.199,96.107,574.09,570.038,0.0
55426.0,STARLINK-5638,PAYLOAD,2024-02-15 19:16:21,14.98314312,0.0002816,70.0012,182.89,270.6344,89.4492,0.00035042,4.089e-05,0.0,0 STARLINK-5638,1 55426U 23014AM  24046.80302624  .00004089  00000-0  35042-3 0  9991,2 55426  70.0012 182.8900 0002816 270.6344  89.4492 14.98314312 57841,6950.241,96.108,574.064,570.149,0.0
55426.0,STARLINK-5638,PAYLOAD,2024-02-16 11:17:41,14.98332157,0.0002814,70.0013,181.2082,263.5021,96.5818,4.7624e-05,4.75e-06,0.0,0 STARLINK-5638,1 55426U 23014AM  24047.47062134  .00000475  00000-0  47624-4 0  9999,2 55426  70.0013 181.2082 0002814 263.5021  96.5818 14.98332157 57946,6950.186,96.107,574.007,570.095,0.0
55426.0,STARLINK-5638,PAYLOAD,2024-02-16 14:29:57,14.98331809,0.0002843,70.0013,180.8713,264.5119,95.5716,4.2579e-05,4.15e-06,0.0,0 STARLINK-5638,1 55426U 23014AM  24047.60414142  .00000415  00000-0  42579-4 0  9992,2 55426  70.0013 180.8713 0002843 264.5119  95.5716 14.98331809 58909,6950.187,96.107,574.028,570.076,0.0
55426.0,STARLINK-5638,PAYLOAD,2024-02-16 19:18:21,14.98335244,0.0002795,70.0013,180.3665,264.1287,95.9554,7.5554e-05,8.09e-06,0.0,0 STARLINK-5638,1 55426U 23014AM  24047.80441775  .00000809  00000-0  75554-4 0  9992,2 55426  70.0013 180.3665 0002795 264.1287  95.9554 14.98335244 58932,6950.177,96.107,573.984,570.099,0.0
55426.0,STARLINK-5638,PAYLOAD,2024-02-17 11:19:42,14.98329622,0.0002496,70.002,178.6828,252.7192,107.3694,5.5279e-07,-8.6e-07,0.0,0 STARLINK-5638,1 55426U 23014AM  24048.47202180 -.00000086  00000-0  55279-6 0  9993,2 55426  70.0020 178.6828 0002496 252.7192 107.3694 14.98329622 58090,6950.194,96.107,573.794,570.324,0.0
55426.0,STARLINK-5638,PAYLOAD,2024-02-17 14:31:58,14.98327824,0.0002617,70.0015,178.3444,263.5756,96.5105,-8.9024e-06,-1.99e-06,0.0,0 STARLINK-5638,1 55426U 23014AM  24048.60554374 -.00000199  00000-0 -89024-5 0  9993,2 55426  70.0015 178.3444 0002617 263.5756  96.5105 14.98327824 59051,6950.2,96.107,573.883,570.246,0.0
55426.0,STARLINK-5638,PAYLOAD,2024-02-17 17:44:14,14.9833377,0.0002849,70.0013,178.0093,270.19,89.8933,1.9556e-05,1.4e-06,0.0,0 STARLINK-5638,1 55426U 23014AM  24048.73905933  .00000140  00000-0  19556-4 0  9994,2 55426  70.0013 178.0093 0002849 270.1900  89.8933 14.98333770 59071,6950.181,96.107,574.026,570.066,0.0
55426.0,STARLINK-5638,PAYLOAD,2024-02-18 11:21:43,14.98328861,0.0002934,70.0018,176.1589,272.1494,87.9329,-1.601e-05,-2.84e-06,0.0,0 STARLINK-5638,1 55426U 23014AM  24049.47342160 -.00000284  00000-0 -16010-4 0  9996,2 55426  70.0018 176.1589 0002934 272.1494  87.9329 14.98328861 58241,6950.196,96.107,574.101,570.022,0.0
